{
  "links" : {
    "next" : "https://api.nasa.gov/neo/rest/v1/feed?start_date=2008-04-23&end_date=2008-04-23&detailed=true&api_key=t0TVs3DtDT2H8Oy2Zy8m2eVrNsAVKAexjcZXUckd",
    "prev" : "https://api.nasa.gov/neo/rest/v1/feed?start_date=2008-04-21&end_date=2008-04-21&detailed=true&api_key=t0TVs3DtDT2H8Oy2Zy8m2eVrNsAVKAexjcZXUckd",
    "self" : "https://api.nasa.gov/neo/rest/v1/feed?start_date=2008-04-22&end_date=2008-04-22&detailed=true&api_key=t0TVs3DtDT2H8Oy2Zy8m2eVrNsAVKAexjcZXUckd"
  },
  "element_count" : 10,
  "near_earth_objects" : {
    "2008-04-22" : [ {
      "links" : {
        "self" : "https://api.nasa.gov/neo/rest/v1/neo/3433367?api_key=t0TVs3DtDT2H8Oy2Zy8m2eVrNsAVKAexjcZXUckd"
      },
      "neo_reference_id" : "3433367",
      "name" : "(2008 UG7)",
      "nasa_jpl_url" : "http://ssd.jpl.nasa.gov/sbdb.cgi?sstr=3433367",
      "absolute_magnitude_h" : 21.2,
      "estimated_diameter" : {
        "kilometers" : {
          "estimated_diameter_min" : 0.1529519353,
          "estimated_diameter_max" : 0.3420109247
        },
        "meters" : {
          "estimated_diameter_min" : 152.9519353442,
          "estimated_diameter_max" : 342.0109247198
        },
        "miles" : {
          "estimated_diameter_min" : 0.095039897,
          "estimated_diameter_max" : 0.2125156703
        },
        "feet" : {
          "estimated_diameter_min" : 501.8108275547,
          "estimated_diameter_max" : 1122.0831222578
        }
      },
      "is_potentially_hazardous_asteroid" : false,
      "close_approach_data" : [ {
        "close_approach_date" : "2008-04-22",
        "epoch_date_close_approach" : 1208847600000,
        "relative_velocity" : {
          "kilometers_per_second" : "22.9689345472",
          "kilometers_per_hour" : "82688.1643699988",
          "miles_per_hour" : "51379.2096886807"
        },
        "miss_distance" : {
          "astronomical" : "0.4959693025",
          "lunar" : "192.9320526123",
          "kilometers" : "74195952",
          "miles" : "46103228"
        },
        "orbiting_body" : "Earth"
      } ],
      "orbital_data" : {
        "orbit_id" : "11",
        "orbit_determination_date" : "2017-04-06 09:02:25",
        "orbit_uncertainty" : "2",
        "minimum_orbit_intersection" : ".164086",
        "jupiter_tisserand_invariant" : "4.970",
        "epoch_osculation" : "2458000.5",
        "eccentricity" : ".09474676611184379",
        "semi_major_axis" : "1.227624404753961",
        "inclination" : "40.82475930278173",
        "ascending_node_longitude" : "208.3524638616056",
        "orbital_period" : "496.8172848921189",
        "perihelion_distance" : "1.111310962403546",
        "perihelion_argument" : "120.5350709237874",
        "aphelion_distance" : "1.343937847104375",
        "perihelion_time" : "2458171.686399050289",
        "mean_anomaly" : "235.9562005345972",
        "mean_motion" : ".7246124701119687",
        "equinox" : "J2000"
      }
    }, {
      "links" : {
        "self" : "https://api.nasa.gov/neo/rest/v1/neo/3654483?api_key=t0TVs3DtDT2H8Oy2Zy8m2eVrNsAVKAexjcZXUckd"
      },
      "neo_reference_id" : "3654483",
      "name" : "(2013 XY20)",
      "nasa_jpl_url" : "http://ssd.jpl.nasa.gov/sbdb.cgi?sstr=3654483",
      "absolute_magnitude_h" : 25.5,
      "estimated_diameter" : {
        "kilometers" : {
          "estimated_diameter_min" : 0.0211132445,
          "estimated_diameter_max" : 0.0472106499
        },
        "meters" : {
          "estimated_diameter_min" : 21.113244479,
          "estimated_diameter_max" : 47.2106498806
        },
        "miles" : {
          "estimated_diameter_min" : 0.0131191578,
          "estimated_diameter_max" : 0.0293353287
        },
        "feet" : {
          "estimated_diameter_min" : 69.2691770164,
          "estimated_diameter_max" : 154.8905885541
        }
      },
      "is_potentially_hazardous_asteroid" : false,
      "close_approach_data" : [ {
        "close_approach_date" : "2008-04-22",
        "epoch_date_close_approach" : 1208847600000,
        "relative_velocity" : {
          "kilometers_per_second" : "3.1987763692",
          "kilometers_per_hour" : "11515.5949291776",
          "miles_per_hour" : "7155.3428602992"
        },
        "miss_distance" : {
          "astronomical" : "0.1884666265",
          "lunar" : "73.3135147095",
          "kilometers" : "28194206",
          "miles" : "17519068"
        },
        "orbiting_body" : "Earth"
      } ],
      "orbital_data" : {
        "orbit_id" : "16",
        "orbit_determination_date" : "2017-04-06 08:43:20",
        "orbit_uncertainty" : "5",
        "minimum_orbit_intersection" : ".0297349",
        "jupiter_tisserand_invariant" : "5.528",
        "epoch_osculation" : "2458000.5",
        "eccentricity" : ".1064290917806996",
        "semi_major_axis" : "1.130536133654754",
        "inclination" : "2.862689347802723",
        "ascending_node_longitude" : "78.63417774554644",
        "orbital_period" : "439.0612386764371",
        "perihelion_distance" : "1.010214199724615",
        "perihelion_argument" : "18.16760125743058",
        "aphelion_distance" : "1.250858067584893",
        "perihelion_time" : "2457970.612040392604",
        "mean_anomaly" : "24.50607002134327",
        "mean_motion" : ".8199311810927115",
        "equinox" : "J2000"
      }
    }, {
      "links" : {
        "self" : "https://api.nasa.gov/neo/rest/v1/neo/3467261?api_key=t0TVs3DtDT2H8Oy2Zy8m2eVrNsAVKAexjcZXUckd"
      },
      "neo_reference_id" : "3467261",
      "name" : "(2009 SL2)",
      "nasa_jpl_url" : "http://ssd.jpl.nasa.gov/sbdb.cgi?sstr=3467261",
      "absolute_magnitude_h" : 22.1,
      "estimated_diameter" : {
        "kilometers" : {
          "estimated_diameter_min" : 0.1010543415,
          "estimated_diameter_max" : 0.2259643771
        },
        "meters" : {
          "estimated_diameter_min" : 101.054341542,
          "estimated_diameter_max" : 225.9643771094
        },
        "miles" : {
          "estimated_diameter_min" : 0.0627922373,
          "estimated_diameter_max" : 0.140407711
        },
        "feet" : {
          "estimated_diameter_min" : 331.5431259047,
          "estimated_diameter_max" : 741.3529669956
        }
      },
      "is_potentially_hazardous_asteroid" : false,
      "close_approach_data" : [ {
        "close_approach_date" : "2008-04-22",
        "epoch_date_close_approach" : 1208847600000,
        "relative_velocity" : {
          "kilometers_per_second" : "14.6127305299",
          "kilometers_per_hour" : "52605.8299076216",
          "miles_per_hour" : "32687.2169223219"
        },
        "miss_distance" : {
          "astronomical" : "0.2986307303",
          "lunar" : "116.1673583984",
          "kilometers" : "44674524",
          "miles" : "27759462"
        },
        "orbiting_body" : "Earth"
      } ],
      "orbital_data" : {
        "orbit_id" : "10",
        "orbit_determination_date" : "2017-04-06 08:59:56",
        "orbit_uncertainty" : "6",
        "minimum_orbit_intersection" : ".150051",
        "jupiter_tisserand_invariant" : "5.768",
        "epoch_osculation" : "2458000.5",
        "eccentricity" : ".2489470689354046",
        "semi_major_axis" : "1.046304081911189",
        "inclination" : "23.73870968884856",
        "ascending_node_longitude" : "4.972058517926767",
        "orbital_period" : "390.9176742630271",
        "perihelion_distance" : ".7858297475042493",
        "perihelion_argument" : "224.6271748065314",
        "aphelion_distance" : "1.306778416318129",
        "perihelion_time" : "2458115.624486235193",
        "mean_anomaly" : "253.9807080280957",
        "mean_motion" : ".9209100117529496",
        "equinox" : "J2000"
      }
    } ]
  }
}